[
    {
        "Altitude(m)": 561284.283321734,
        "Argument of Periapsis(deg)": 0.026491964442854003,
        "Eccentricity": 0.0,
        "Inclination(deg)": 53.0,
        "Latitude(deg)": -26.836228785588993,
        "Longitude(deg)": 99.53415926181302,
        "Mean Anomaly(deg)": -34.17902852968972,
        "RAAN(deg)": 224.96057347411207,
        "Satellite Name": "Starlink Shell 1 1007",
        "Satellite Number": 1007,
        "Semi-Major Axis(m)": 6931778.249405717,
        "Time(s)": 760
    },
    {
        "Altitude(m)": 561112.0541650534,
        "Argument of Periapsis(deg)": 0.02684054292236524,
        "Eccentricity": 0.0,
        "Inclination(deg)": 53.0,
        "Latitude(deg)": -26.370781072384432,
        "Longitude(deg)": 99.96260987136574,
        "Mean Anomaly(deg)": -33.55219732613296,
        "RAAN(deg)": 224.9600547040346,
        "Satellite Name": "Starlink Shell 1 1007",
        "Satellite Number": 1007,
        "Semi-Major Axis(m)": 6931778.249405717,
        "Time(s)": 770
    },
    {
        "Altitude(m)": 560940.4980018305,
        "Argument of Periapsis(deg)": 0.027189121401876473,
        "Eccentricity": 0.0,
        "Inclination(deg)": 53.0,
        "Latitude(deg)": -25.903760453598426,
        "Longitude(deg)": 100.38732319156176,
        "Mean Anomaly(deg)": -32.92536612257622,
        "RAAN(deg)": 224.95953593395714,
        "Satellite Name": "Starlink Shell 1 1007",
        "Satellite Number": 1007,
        "Semi-Major Axis(m)": 6931778.249405717,
        "Time(s)": 780
    },
    {
        "Altitude(m)": 560769.6775580933,
        "Argument of Periapsis(deg)": 0.02753769988138771,
        "Eccentricity": 0.0,
        "Inclination(deg)": 53.0,
        "Latitude(deg)": -25.435209859188667,
        "Longitude(deg)": 100.8083930025592,
        "Mean Anomaly(deg)": -32.29853491901955,
        "RAAN(deg)": 224.95901716387965,
        "Satellite Name": "Starlink Shell 1 1007",
        "Satellite Number": 1007,
        "Semi-Major Axis(m)": 6931778.249405717,
        "Time(s)": 790
    },
    {
        "Altitude(m)": 560599.6550839783,
        "Argument of Periapsis(deg)": 0.02788627836089895,
        "Eccentricity": 0.0,
        "Inclination(deg)": 53.0,
        "Latitude(deg)": -24.965171331123354,
        "Longitude(deg)": 101.22591130683983,
        "Mean Anomaly(deg)": -31.671703715462804,
        "RAAN(deg)": 224.9584983938022,
        "Satellite Name": "Starlink Shell 1 1007",
        "Satellite Number": 1007,
        "Semi-Major Axis(m)": 6931778.249405717,
        "Time(s)": 800
    },
    {
        "Altitude(m)": 560430.4923258283,
        "Argument of Periapsis(deg)": 0.02823485684041019,
        "Eccentricity": 0.0,
        "Inclination(deg)": 53.0,
        "Latitude(deg)": -24.493686050403454,
        "Longitude(deg)": 101.63996884532973,
        "Mean Anomaly(deg)": -31.044872511906032,
        "RAAN(deg)": 224.9579796237247,
        "Satellite Name": "Starlink Shell 1 1007",
        "Satellite Number": 1007,
        "Semi-Major Axis(m)": 6931778.249405717,
        "Time(s)": 810
    },
    {
        "Altitude(m)": 560262.2504984977,
        "Argument of Periapsis(deg)": 0.028583435319921423,
        "Eccentricity": 0.0,
        "Inclination(deg)": 53.0,
        "Latitude(deg)": -24.02079436356922,
        "Longitude(deg)": 102.05065561526008,
        "Mean Anomaly(deg)": -30.41804130834936,
        "RAAN(deg)": 224.95746085364723,
        "Satellite Name": "Starlink Shell 1 1007",
        "Satellite Number": 1007,
        "Semi-Major Axis(m)": 6931778.249405717,
        "Time(s)": 820
    },
    {
        "Altitude(m)": 560094.9902579354,
        "Argument of Periapsis(deg)": 0.028932013799432665,
        "Eccentricity": 0.0,
        "Inclination(deg)": 53.0,
        "Latitude(deg)": -23.546535808688468,
        "Longitude(deg)": 102.45805987673799,
        "Mean Anomaly(deg)": -29.79121010479262,
        "RAAN(deg)": 224.95694208356974,
        "Satellite Name": "Starlink Shell 1 1007",
        "Satellite Number": 1007,
        "Semi-Major Axis(m)": 6931778.249405717,
        "Time(s)": 830
    },
    {
        "Altitude(m)": 559928.7716739995,
        "Argument of Periapsis(deg)": 0.029280592278943897,
        "Eccentricity": 0.0,
        "Inclination(deg)": 53.0,
        "Latitude(deg)": -23.070949140826237,
        "Longitude(deg)": 102.8622686736231,
        "Mean Anomaly(deg)": -29.16437890123597,
        "RAAN(deg)": 224.95642331349228,
        "Satellite Name": "Starlink Shell 1 1007",
        "Satellite Number": 1007,
        "Semi-Major Axis(m)": 6931778.249405717,
        "Time(s)": 840
    },
    {
        "Altitude(m)": 559763.6542035617,
        "Argument of Periapsis(deg)": 0.029629170758455132,
        "Eccentricity": 0.0,
        "Inclination(deg)": 53.0,
        "Latitude(deg)": -22.594072356995085,
        "Longitude(deg)": 103.26336835570123,
        "Mean Anomaly(deg)": -28.5375476976792,
        "RAAN(deg)": 224.9559045434148,
        "Satellite Name": "Starlink Shell 1 1007",
        "Satellite Number": 1007,
        "Semi-Major Axis(m)": 6931778.249405717,
        "Time(s)": 850
    },
    {
        "Altitude(m)": 559599.6966638874,
        "Argument of Periapsis(deg)": 0.02997774923796637,
        "Eccentricity": 0.0,
        "Inclination(deg)": 53.0,
        "Latitude(deg)": -22.115942720589494,
        "Longitude(deg)": 103.6614434210578,
        "Mean Anomaly(deg)": -27.91071649412253,
        "RAAN(deg)": 224.95538577333733,
        "Satellite Name": "Starlink Shell 1 1007",
        "Satellite Number": 1007,
        "Semi-Major Axis(m)": 6931778.249405717,
        "Time(s)": 860
    },
    {
        "Altitude(m)": 559436.9572063385,
        "Argument of Periapsis(deg)": 0.030326327717477602,
        "Eccentricity": 0.0,
        "Inclination(deg)": 53.0,
        "Latitude(deg)": -21.636596785306583,
        "Longitude(deg)": 104.05657788095718,
        "Mean Anomaly(deg)": -27.283885290565784,
        "RAAN(deg)": 224.9548670032599,
        "Satellite Name": "Starlink Shell 1 1007",
        "Satellite Number": 1007,
        "Semi-Major Axis(m)": 6931778.249405717,
        "Time(s)": 870
    },
    {
        "Altitude(m)": 559275.4932903586,
        "Argument of Periapsis(deg)": 0.030674906196988847,
        "Eccentricity": 0.0,
        "Inclination(deg)": 53.0,
        "Latitude(deg)": -21.156070418558883,
        "Longitude(deg)": 104.448854104209,
        "Mean Anomaly(deg)": -26.657054087009012,
        "RAAN(deg)": 224.9543482331824,
        "Satellite Name": "Starlink Shell 1 1007",
        "Satellite Number": 1007,
        "Semi-Major Axis(m)": 6931778.249405717,
        "Time(s)": 880
    },
    {
        "Altitude(m)": 559115.3616578231,
        "Argument of Periapsis(deg)": 0.031023484676500086,
        "Eccentricity": 0.0,
        "Inclination(deg)": 53.0,
        "Latitude(deg)": -20.67439882438415,
        "Longitude(deg)": 104.83835334334577,
        "Mean Anomaly(deg)": -26.030222883452364,
        "RAAN(deg)": 224.95382946310494,
        "Satellite Name": "Starlink Shell 1 1007",
        "Satellite Number": 1007,
        "Semi-Major Axis(m)": 6931778.249405717,
        "Time(s)": 890
    },
    {
        "Altitude(m)": 558956.6183076908,
        "Argument of Periapsis(deg)": 0.03137206315601132,
        "Eccentricity": 0.0,
        "Inclination(deg)": 53.0,
        "Latitude(deg)": -20.19161656585923,
        "Longitude(deg)": 105.2251562615479,
        "Mean Anomaly(deg)": -25.40339167989572,
        "RAAN(deg)": 224.95331069302748,
        "Satellite Name": "Starlink Shell 1 1007",
        "Satellite Number": 1007,
        "Semi-Major Axis(m)": 6931778.249405717,
        "Time(s)": 900
    },
    {
        "Altitude(m)": 558799.3184710518,
        "Argument of Periapsis(deg)": 0.03172064163552255,
        "Eccentricity": 0.0,
        "Inclination(deg)": 53.0,
        "Latitude(deg)": -19.707757587025238,
        "Longitude(deg)": 105.60934194735789,
        "Mean Anomaly(deg)": -24.776560476338922,
        "RAAN(deg)": 224.95279192294998,
        "Satellite Name": "Starlink Shell 1 1007",
        "Satellite Number": 1007,
        "Semi-Major Axis(m)": 6931778.249405717,
        "Time(s)": 910
    },
    {
        "Altitude(m)": 558643.5165864982,
        "Argument of Periapsis(deg)": 0.0320692201150338,
        "Eccentricity": 0.0,
        "Inclination(deg)": 53.0,
        "Latitude(deg)": -19.222855234333448,
        "Longitude(deg)": 105.99098844285025,
        "Mean Anomaly(deg)": -24.149729272782174,
        "RAAN(deg)": 224.9522731528725,
        "Satellite Name": "Starlink Shell 1 1007",
        "Satellite Number": 1007,
        "Semi-Major Axis(m)": 6931778.249405717,
        "Time(s)": 920
    },
    {
        "Altitude(m)": 558489.2662759152,
        "Argument of Periapsis(deg)": 0.032417798594545036,
        "Eccentricity": 0.0,
        "Inclination(deg)": 53.0,
        "Latitude(deg)": -18.73694227761926,
        "Longitude(deg)": 106.37017327231163,
        "Mean Anomaly(deg)": -23.52289806922553,
        "RAAN(deg)": 224.95175438279503,
        "Satellite Name": "Starlink Shell 1 1007",
        "Satellite Number": 1007,
        "Semi-Major Axis(m)": 6931778.249405717,
        "Time(s)": 930
    },
    {
        "Altitude(m)": 558336.6203206311,
        "Argument of Periapsis(deg)": 0.03276637707405627,
        "Eccentricity": 0.0,
        "Inclination(deg)": 53.0,
        "Latitude(deg)": -18.2500509306145,
        "Longitude(deg)": 106.74697245849191,
        "Mean Anomaly(deg)": -22.896066865668864,
        "RAAN(deg)": 224.95123561271754,
        "Satellite Name": "Starlink Shell 1 1007",
        "Satellite Number": 1007,
        "Semi-Major Axis(m)": 6931778.249405717,
        "Time(s)": 940
    }
]